ONEWEB-0230             
1 48769U 21045C   26187.71148304  .00000103  00000+0  24004-3 0  9994
2 48769  87.8990 255.3136 0001946  95.9605 264.1747 13.15547911247232
ONEWEB-0237             
1 48770U 21045D   26187.62432882  .00000107  00000+0  25016-3 0  9991
2 48770  87.8988 255.3329 0002382 100.5243 259.6155 13.15548053246948
ONEWEB-0235             
1 48771U 21045E   26187.67502954 -.00000148  00000+0 -42773-3 0  9991
2 48771  87.9000 255.3103 0002085 110.9004 249.2350 13.15549903246942
ONEWEB-0242             
1 48772U 21045F   26187.66869911 -.00000101  00000+0 -30347-3 0  9993
2 48772  87.9003 255.3087 0001888 102.4441 257.6901 13.15548228246986
ONEWEB-0241             
1 48773U 21045G   26187.65600912  .00000005  00000+0 -20656-4 0  9992
2 48773  87.8992 255.3272 0002300 108.3352 251.8029 13.15550229246896
ONEWEB-0243             
1 48774U 21045H   26187.23137037  .00000015  00000+0  50465-5 0  9992
2 48774  87.8988 255.4245 0001644 110.4690 249.6617 13.15550687246865
ONEWEB-0222             
1 48775U 21045J   26187.21471535 -.00000290  00000+0 -80569-3 0  9998
2 48775  87.9001 255.3970 0002160 105.3324 254.8045 13.15547740246902
ONEWEB-0244             
1 48776U 21045K   26187.24087597  .00000074  00000+0  16375-3 0  9995
2 48776  87.9002 255.3875 0002002 102.7085 257.4269 13.15547894247478
ONEWEB-0247             
1 48777U 21045L   26187.23770839  .00000031  00000+0  48024-4 0  9993
2 48777  87.8988 255.4176 0001779 122.7377 237.3925 13.15548787246918
ONEWEB-0245             
1 48778U 21045M   26187.23294774 -.00000074  00000+0 -23039-3 0  9990
2 48778  87.8999 255.3995 0002199 103.0716 257.0660 13.15548951246889
ONEWEB-0229             
1 48779U 21045N   26187.22819503 -.00000099  00000+0 -29607-3 0  9997
2 48779  87.9000 255.3982 0001941 100.9562 259.1787 13.15548033246917
ONEWEB-0228             
1 48780U 21045P   26187.26161242  .00000141  00000+0  34140-3 0  9997
2 48780  87.9007 255.3852 0002026 101.1430 258.9929 13.15548710246832
ONEWEB-0232             
1 48781U 21045Q   26187.23612280  .00000078  00000+0  17388-3 0  9992
2 48781  87.9001 255.3910 0002154  99.8840 260.2534 13.15547842247151
ONEWEB-0231             
1 48782U 21045R   26187.21393170 -.00000040  00000+0 -14156-3 0  9996
2 48782  87.8997 255.4072 0002098 105.6966 254.4396 13.15547530246847
ONEWEB-0234             
1 48783U 21045S   26187.25182686  .00000239  00000+0  60017-3 0  9994
2 48783  87.9000 255.3818 0002860  93.9987 266.1470 13.15547381246982
ONEWEB-0238             
1 48784U 21045T   26187.17603488  .00000171  00000+0  42037-3 0  9991
2 48784  87.9004 255.3926 0002457  95.8477 264.2933 13.15548002246876
ONEWEB-0240             
1 48785U 21045U   26187.27335643  .00000034  00000+0  56412-4 0  9999
2 48785  87.9005 255.3827 0002245 106.1676 253.9701 13.15549004246916
ONEWEB-0246             
1 48786U 21045V   26187.26780834  .00000072  00000+0  15748-3 0  9993
2 48786  87.9003 255.3879 0001943 100.3493 259.7856 13.15547521246781
ONEWEB-0210             
1 48787U 21045W   26187.24245674  .00000070  00000+0  15268-3 0  9995
2 48787  87.9001 255.3904 0001464 120.6740 239.4535 13.15547834246828
ONEWEB-0214             
1 48788U 21045X   26187.25115365  .00000145  00000+0  35032-3 0  9994
2 48788  87.9001 255.3854 0001687  97.4029 262.7294 13.15550266246791
ONEWEB-0221             
1 48789U 21045Y   26187.25830844  .00000118  00000+0  27812-3 0  9998
2 48789  87.9002 255.3925 0002045 104.4596 255.6761 13.15547712246881
ONEWEB-0213             
1 48790U 21045Z   26187.24721559  .00000141  00000+0  34076-3 0  9997
2 48790  87.9001 255.3979 0001948 107.3644 252.7699 13.15548562246947
ONEWEB-0212             
1 48791U 21045AA  26187.22421749 -.00000054  00000+0 -17784-3 0  9996
2 48791  87.9000 255.3967 0002089  98.8205 261.3162 13.15547087246939
ONEWEB-0227             
1 48792U 21045AB  26187.22344143 -.00000135  00000+0 -39233-3 0  9992
2 48792  87.9001 255.3973 0002065 101.4821 258.6541 13.15547900246885
ONEWEB-0226             
1 48793U 21045AC  26187.21709968 -.00000038  00000+0 -13537-3 0  9993
2 48793  87.8999 255.4031 0001876 104.9531 255.1807 13.15547716246851
ONEWEB-0224             
1 48794U 21045AD  26187.25672533  .00000153  00000+0  37255-3 0  9994
2 48794  87.8989 255.4286 0002908 106.8227 253.3222 13.15548779246786
ONEWEB-0233             
1 48795U 21045AE  26187.26134577  .00001147  00000+0  30125-2 0  9999
2 48795  87.8991 255.4346 0002087 109.2772 250.8584 13.15543356246809
ONEWEB-0190             
1 48796U 21045AF  26187.24879868  .00000217  00000+0  54209-3 0  9994
2 48796  87.8996 255.3999 0001983 118.9215 241.2115 13.15548954246871
ONEWEB-0236             
1 48797U 21045AG  26187.19017437  .00000105  00000+0  24351-3 0  9996
2 48797  87.8991 255.4202 0002165  96.9389 263.1988 13.15548146246756
ONEWEB-0248             
1 48798U 21045AH  26187.20284655  .00000019  00000+0  15673-4 0  9999
2 48798  87.9002 255.4030 0002257 110.9773 249.1599 13.15548479246915
